{
    "links": {
        "self": "http://www.neowsapp.com/rest/v1/neo/3719380?api_key=iIulBulltgU6a56xZRHN4H3l9WmuAYTsLGpBGhQ2"
    },
    "id": "3719380",
    "neo_reference_id": "3719380",
    "name": "(2015 KU18)",
    "designation": "2015 KU18",
    "nasa_jpl_url": "http://ssd.jpl.nasa.gov/sbdb.cgi?sstr=3719380",
    "absolute_magnitude_h": 26.0,
    "estimated_diameter": {
        "kilometers": {
            "estimated_diameter_min": 0.0167708462,
            "estimated_diameter_max": 0.0375007522
        },
        "meters": {
            "estimated_diameter_min": 16.7708462163,
            "estimated_diameter_max": 37.5007521798
        },
        "miles": {
            "estimated_diameter_min": 0.0104209175,
            "estimated_diameter_max": 0.0233018799
        },
        "feet": {
            "estimated_diameter_min": 55.0224631002,
            "estimated_diameter_max": 123.0339677816
        }
    },
    "is_potentially_hazardous_asteroid": false,
    "close_approach_data": [
        {
            "close_approach_date": "2015-04-22",
            "close_approach_date_full": "2015-Apr-22 14:45",
            "epoch_date_close_approach": 1429713900000,
            "relative_velocity": {
                "kilometers_per_second": "8.0840728144",
                "kilometers_per_hour": "29102.6621320118",
                "miles_per_hour": "18083.2624786381"
            },
            "miss_distance": {
                "astronomical": "0.0514770221",
                "lunar": "20.0245615969",
                "kilometers": "7700852.860102927",
                "miles": "4785088.0797853126"
            },
            "orbiting_body": "Earth"
        },
        {
            "close_approach_date": "2111-05-28",
            "close_approach_date_full": "2111-May-28 06:09",
            "epoch_date_close_approach": 4462236540000,
            "relative_velocity": {
                "kilometers_per_second": "14.1525384168",
                "kilometers_per_hour": "50949.1383003608",
                "miles_per_hour": "31657.8131844659"
            },
            "miss_distance": {
                "astronomical": "0.02735215",
                "lunar": "10.63998635",
                "kilometers": "4091823.3799205",
                "miles": "2542541.1490829"
            },
            "orbiting_body": "Mars"
        }
    ],
    "orbital_data": {
        "orbit_id": "4",
        "orbit_determination_date": "2017-04-06 08:33:41",
        "first_observation_date": "2015-05-20",
        "last_observation_date": "2015-05-24",
        "data_arc_in_days": 4,
        "observations_used": 18,
        "orbit_uncertainty": "8",
        "minimum_orbit_intersection": ".0168726",
        "jupiter_tisserand_invariant": "3.720",
        "epoch_osculation": "2457163.5",
        "eccentricity": ".4904425496641634",
        "semi_major_axis": "1.964482247824713",
        "inclination": ".9606789578817493",
        "ascending_node_longitude": "283.553711859507",
        "orbital_period": "1005.704954920741",
        "perihelion_distance": "1.001016565431574",
        "perihelion_argument": "259.5979675026591",
        "aphelion_distance": "2.927947930217852",
        "perihelion_time": "2457112.310624986990",
        "mean_anomaly": "18.32363946753739",
        "mean_motion": ".357957866508047",
        "equinox": "J2000",
        "orbit_class": {
            "orbit_class_type": "APO",
            "orbit_class_description": "Near-Earth asteroid orbits which cross the Earth’s orbit similar to that of 1862 Apollo",
            "orbit_class_range": "a (semi-major axis) > 1.0 AU; q (perihelion) < 1.017 AU"
        }
    },
    "is_sentry_object": false
}